*******************************************************************************
Ephemeris / WWW_USER Fri Mar  7 10:09:13 2025 Pasadena, USA      / Horizons    
*******************************************************************************
Target body name: (2018 PM20)                     {source: JPL#2}
Center body name: Earth (399)                     {source: DE441}
Center-site name: Mauna Kea
*******************************************************************************
Start time      : A.D. 2018-Dec-24 03:59:00.0000 UT      
Stop  time      : A.D. 2018-Dec-24 16:43:00.0000 UT      
Step-size       : 1 minutes
*******************************************************************************
Target pole/equ : undefined
Target radii    : undefined                                                    
Center geodetic : 204.5278, 19.8260847, 4.21024   {E-lon(deg),Lat(deg),Alt(km)}
Center cylindric: 204.5278, 6006.35451, 2151.0229 {E-lon(deg),Dxy(km),Dz(km)}
Center pole/equ : ITRF93                          {East-longitude positive}
Center radii    : 6378.137, 6378.137, 6356.752 km {Equator_a, b, pole_c}       
Target primary  : Sun
Vis. interferer : MOON (R_eq= 1737.400) km        {source: DE441}
Rel. light bend : Sun                             {source: DE441}
Rel. lght bnd GM: 1.3271E+11 km^3/s^2                                          
Small-body perts: Yes                             {source: SB441-N16}
Atmos refraction: NO (AIRLESS)
RA format       : HMS
Time format     : CAL 
Calendar mode   : Mixed Julian/Gregorian
RTS-only print  : NO       
EOP file        : eop.250306.p250602                                           
EOP coverage    : DATA-BASED 1962-JAN-20 TO 2025-MAR-06. PREDICTS-> 2025-JUN-01
Units conversion: 1 au= 149597870.700 km, c= 299792.458 km/s, 1 day= 86400.0 s 
Table cut-offs 1: Elevation (-90.0deg=NO ),Airmass (>38.000=NO), Daylight (YES)
Table cut-offs 2: Solar elongation (  0.0,180.0=NO ),Local Hour Angle( 0.0=NO )
Table cut-offs 3: RA/DEC angular rate (     0.0=NO )                           
*******************************************************************************
Initial IAU76/J2000 heliocentric ecliptic osculating elements (au, days, deg.):
  EPOCH=  2458343.5 ! 2018-Aug-13.00 (TDB)         Residual RMS= .089003       
   EC= .5103595829140648   QR= .9783824475456468   TP= 2458372.5495769856      
   OM= 141.729241004527    W=  213.3086535448706   IN= 3.923256746335003       
  Equivalent ICRF heliocentric cartesian coordinates (au, au/d):
   X= 8.000585561647119E-01  Y=-6.125483166279821E-01  Z=-2.634816273742420E-01
  VX= 9.656077190407949E-03 VY= 1.708944028933422E-02 VZ= 5.904161592396531E-03
Asteroid physical parameters (km, seconds, rotational period in hours):        
   GM= n.a.                RAD= n.a.               ROTPER= n.a.                
   H= 26.3                 G= .150                 B-V= n.a.                   
                           ALBEDO= n.a.            STYP= n.a.                  
*******************************************************************************
 Date__(UT)__HR:MN     R.A._________(ICRF)_________DEC
******************************************************
$$SOE
 2018-Dec-24 06:02  m  05 27 49.555654 +14 28 18.37236
 2018-Dec-24 06:03  m  05 27 49.501849 +14 28 18.73546
 2018-Dec-24 06:04  m  05 27 49.448028 +14 28 19.09852
 2018-Dec-24 06:05  m  05 27 49.394194 +14 28 19.46153
 2018-Dec-24 06:06  m  05 27 49.340344 +14 28 19.82449
 2018-Dec-24 06:07  m  05 27 49.286480 +14 28 20.18742
 2018-Dec-24 06:08  m  05 27 49.232602 +14 28 20.55029
 2018-Dec-24 06:09  m  05 27 49.178709 +14 28 20.91312
 2018-Dec-24 06:10  m  05 27 49.124802 +14 28 21.27590
 2018-Dec-24 06:11  m  05 27 49.070881 +14 28 21.63864
 2018-Dec-24 06:12  m  05 27 49.016945 +14 28 22.00133
 2018-Dec-24 06:13  m  05 27 48.962995 +14 28 22.36397
 2018-Dec-24 06:14  m  05 27 48.909031 +14 28 22.72656
 2018-Dec-24 06:15  m  05 27 48.855054 +14 28 23.08911
 2018-Dec-24 06:16  m  05 27 48.801062 +14 28 23.45161
 2018-Dec-24 06:17  m  05 27 48.747056 +14 28 23.81406
 2018-Dec-24 06:18  m  05 27 48.693036 +14 28 24.17646
 2018-Dec-24 06:19  m  05 27 48.639002 +14 28 24.53881
 2018-Dec-24 06:20  m  05 27 48.584955 +14 28 24.90112
 2018-Dec-24 06:21  m  05 27 48.530893 +14 28 25.26337
 2018-Dec-24 06:22  m  05 27 48.476819 +14 28 25.62558
 2018-Dec-24 06:23  m  05 27 48.422730 +14 28 25.98773
 2018-Dec-24 06:24  m  05 27 48.368628 +14 28 26.34984
 2018-Dec-24 06:25  m  05 27 48.314513 +14 28 26.71189
 2018-Dec-24 06:26  m  05 27 48.260384 +14 28 27.07390
 2018-Dec-24 06:27  m  05 27 48.206241 +14 28 27.43585
 2018-Dec-24 06:28  m  05 27 48.152085 +14 28 27.79776
 2018-Dec-24 06:29  m  05 27 48.097916 +14 28 28.15961
 2018-Dec-24 06:30  m  05 27 48.043734 +14 28 28.52141
 2018-Dec-24 06:31  m  05 27 47.989539 +14 28 28.88316
 2018-Dec-24 06:32  m  05 27 47.935331 +14 28 29.24486
 2018-Dec-24 06:33  m  05 27 47.881109 +14 28 29.60651
 2018-Dec-24 06:34  m  05 27 47.826875 +14 28 29.96810
 2018-Dec-24 06:35  m  05 27 47.772627 +14 28 30.32964
 2018-Dec-24 06:36  m  05 27 47.718367 +14 28 30.69113
 2018-Dec-24 06:37  m  05 27 47.664094 +14 28 31.05257
 2018-Dec-24 06:38  m  05 27 47.609809 +14 28 31.41395
 2018-Dec-24 06:39  m  05 27 47.555510 +14 28 31.77528
 2018-Dec-24 06:40  m  05 27 47.501199 +14 28 32.13656
 2018-Dec-24 06:41  m  05 27 47.446876 +14 28 32.49778
 2018-Dec-24 06:42  m  05 27 47.392540 +14 28 32.85895
 2018-Dec-24 06:43  m  05 27 47.338192 +14 28 33.22006
 2018-Dec-24 06:44  m  05 27 47.283831 +14 28 33.58112
 2018-Dec-24 06:45  m  05 27 47.229458 +14 28 33.94212
 2018-Dec-24 06:46  m  05 27 47.175073 +14 28 34.30307
 2018-Dec-24 06:47  m  05 27 47.120675 +14 28 34.66397
 2018-Dec-24 06:48  m  05 27 47.066266 +14 28 35.02481
 2018-Dec-24 06:49  m  05 27 47.011844 +14 28 35.38559
 2018-Dec-24 06:50  m  05 27 46.957411 +14 28 35.74632
 2018-Dec-24 06:51  m  05 27 46.902966 +14 28 36.10699
 2018-Dec-24 06:52  m  05 27 46.848508 +14 28 36.46761
 2018-Dec-24 06:53  m  05 27 46.794040 +14 28 36.82817
 2018-Dec-24 06:54  m  05 27 46.739559 +14 28 37.18867
 2018-Dec-24 06:55  m  05 27 46.685067 +14 28 37.54911
 2018-Dec-24 06:56  m  05 27 46.630563 +14 28 37.90950
 2018-Dec-24 06:57  m  05 27 46.576047 +14 28 38.26983
 2018-Dec-24 06:58  m  05 27 46.521521 +14 28 38.63011
 2018-Dec-24 06:59  m  05 27 46.466982 +14 28 38.99032
 2018-Dec-24 07:00  m  05 27 46.412433 +14 28 39.35048
 2018-Dec-24 07:01  m  05 27 46.357872 +14 28 39.71058
 2018-Dec-24 07:02  m  05 27 46.303300 +14 28 40.07062
 2018-Dec-24 07:03  m  05 27 46.248717 +14 28 40.43061
 2018-Dec-24 07:04  m  05 27 46.194123 +14 28 40.79053
 2018-Dec-24 07:05  m  05 27 46.139518 +14 28 41.15040
 2018-Dec-24 07:06  m  05 27 46.084902 +14 28 41.51021
 2018-Dec-24 07:07  m  05 27 46.030276 +14 28 41.86995
 2018-Dec-24 07:08  m  05 27 45.975638 +14 28 42.22964
 2018-Dec-24 07:09  m  05 27 45.920990 +14 28 42.58927
 2018-Dec-24 07:10  m  05 27 45.866331 +14 28 42.94884
 2018-Dec-24 07:11  m  05 27 45.811662 +14 28 43.30835
 2018-Dec-24 07:12  m  05 27 45.756982 +14 28 43.66780
 2018-Dec-24 07:13  m  05 27 45.702292 +14 28 44.02718
 2018-Dec-24 07:14  m  05 27 45.647592 +14 28 44.38651
 2018-Dec-24 07:15  m  05 27 45.592881 +14 28 44.74578
 2018-Dec-24 07:16  m  05 27 45.538160 +14 28 45.10498
 2018-Dec-24 07:17  m  05 27 45.483429 +14 28 45.46413
 2018-Dec-24 07:18  m  05 27 45.428688 +14 28 45.82321
 2018-Dec-24 07:19  m  05 27 45.373936 +14 28 46.18223
 2018-Dec-24 07:20  m  05 27 45.319175 +14 28 46.54119
 2018-Dec-24 07:21  m  05 27 45.264405 +14 28 46.90009
 2018-Dec-24 07:22  m  05 27 45.209624 +14 28 47.25893
 2018-Dec-24 07:23  m  05 27 45.154834 +14 28 47.61770
 2018-Dec-24 07:24  m  05 27 45.100034 +14 28 47.97641
 2018-Dec-24 07:25  m  05 27 45.045224 +14 28 48.33506
 2018-Dec-24 07:26  m  05 27 44.990405 +14 28 48.69365
 2018-Dec-24 07:27  m  05 27 44.935577 +14 28 49.05217
 2018-Dec-24 07:28  m  05 27 44.880739 +14 28 49.41063
 2018-Dec-24 07:29  m  05 27 44.825892 +14 28 49.76903
 2018-Dec-24 07:30  m  05 27 44.771036 +14 28 50.12736
 2018-Dec-24 07:31  m  05 27 44.716171 +14 28 50.48563
 2018-Dec-24 07:32  m  05 27 44.661296 +14 28 50.84384
 2018-Dec-24 07:33  m  05 27 44.606413 +14 28 51.20198
 2018-Dec-24 07:34  m  05 27 44.551521 +14 28 51.56005
 2018-Dec-24 07:35  m  05 27 44.496620 +14 28 51.91807
 2018-Dec-24 07:36  m  05 27 44.441710 +14 28 52.27602
 2018-Dec-24 07:37  m  05 27 44.386792 +14 28 52.63390
 2018-Dec-24 07:38  m  05 27 44.331865 +14 28 52.99172
 2018-Dec-24 07:39  m  05 27 44.276930 +14 28 53.34948
 2018-Dec-24 07:40  m  05 27 44.221986 +14 28 53.70717
 2018-Dec-24 07:41  m  05 27 44.167034 +14 28 54.06479
 2018-Dec-24 07:42  m  05 27 44.112073 +14 28 54.42235
 2018-Dec-24 07:43  m  05 27 44.057105 +14 28 54.77984
 2018-Dec-24 07:44  m  05 27 44.002128 +14 28 55.13727
 2018-Dec-24 07:45  m  05 27 43.947143 +14 28 55.49463
 2018-Dec-24 07:46  m  05 27 43.892151 +14 28 55.85193
 2018-Dec-24 07:47  m  05 27 43.837150 +14 28 56.20916
 2018-Dec-24 07:48  m  05 27 43.782141 +14 28 56.56632
 2018-Dec-24 07:49  m  05 27 43.727125 +14 28 56.92342
 2018-Dec-24 07:50  m  05 27 43.672101 +14 28 57.28045
 2018-Dec-24 07:51  m  05 27 43.617070 +14 28 57.63741
 2018-Dec-24 07:52  m  05 27 43.562031 +14 28 57.99431
 2018-Dec-24 07:53  m  05 27 43.506985 +14 28 58.35114
 2018-Dec-24 07:54  m  05 27 43.451931 +14 28 58.70790
 2018-Dec-24 07:55  m  05 27 43.396870 +14 28 59.06460
 2018-Dec-24 07:56  m  05 27 43.341802 +14 28 59.42122
 2018-Dec-24 07:57  m  05 27 43.286726 +14 28 59.77778
 2018-Dec-24 07:58  m  05 27 43.231644 +14 29 00.13428
 2018-Dec-24 07:59  m  05 27 43.176555 +14 29 00.49070
 2018-Dec-24 08:00  m  05 27 43.121459 +14 29 00.84706
 2018-Dec-24 08:01  m  05 27 43.066356 +14 29 01.20335
 2018-Dec-24 08:02  m  05 27 43.011246 +14 29 01.55957
 2018-Dec-24 08:03  m  05 27 42.956130 +14 29 01.91572
 2018-Dec-24 08:04  m  05 27 42.901007 +14 29 02.27180
